NORAD_CAT_ID,OBJECT_NAME,OBJECT_TYPE,EPOCH,MEAN_MOTION,ECCENTRICITY,INCLINATION,RA_OF_ASC_NODE,ARG_OF_PERICENTER,MEAN_ANOMALY,BSTAR,MEAN_MOTION_DOT,MEAN_MOTION_DDOT,TLE_LINE0,TLE_LINE1,TLE_LINE2,SEMIMAJOR_AXIS,PERIOD,APOGEE,PERIGEE,DECAYED
55745.0,STARLINK-5565,PAYLOAD,2023-09-14 17:50:59,14.98317851,0.0003703,70.0005,11.3891,276.8527,83.221,-0.00016289,-2.036e-05,0.0,0 STARLINK-5565,1 55745U 23028E   23257.74374428 -.00002036  00000-0 -16289-3 0  9991,2 55745  70.0005  11.3891 0003703 276.8527  83.2210 14.98317851 30188,6950.23,96.108,574.669,569.522,0.0
55745.0,STARLINK-5565,PAYLOAD,2023-09-15 09:52:19,14.98328385,0.0003559,70.0005,9.704,276.1462,83.9292,-9.5203e-05,-1.229e-05,0.0,0 STARLINK-5565,1 55745U 23028E   23258.41134004 -.00001229  00000-0 -95203-4 0  9997,2 55745  70.0005   9.7040 0003559 276.1462  83.9292 14.98328385 30287,6950.198,96.107,574.536,569.589,0.0
55745.0,STARLINK-5565,PAYLOAD,2023-09-15 11:28:27,14.98328722,0.000352,70.0006,9.5356,276.6147,83.4611,-8.3406e-05,-1.088e-05,0.0,0 STARLINK-5565,1 55745U 23028E   23258.47809965 -.00001088  00000-0 -83406-4 0  9993,2 55745  70.0006   9.5356 0003520 276.6147  83.4611 14.98328722 30295,6950.197,96.107,574.508,569.615,0.0
55745.0,STARLINK-5565,PAYLOAD,2023-09-15 17:52:59,14.98336648,0.0003445,70.0008,8.8629,275.829,84.2476,-5.3967e-07,-1e-06,0.0,0 STARLINK-5565,1 55745U 23028E   23258.74513246 -.00000100  00000-0 -53967-6 0  9992,2 55745  70.0008   8.8629 0003445 275.8290  84.2476 14.98336648 30337,6950.172,96.107,574.432,569.643,0.0
55745.0,STARLINK-5565,PAYLOAD,2023-09-16 13:06:35,14.9834133,0.0003019,70.001,6.8425,270.7714,89.3099,2.3767e-05,1.91e-06,0.0,0 STARLINK-5565,1 55745U 23028E   23259.54624983  .00000191  00000-0  23767-4 0  9993,2 55745  70.0010   6.8425 0003019 270.7714  89.3099 14.98341330 30458,6950.158,96.106,574.121,569.925,0.0
55745.0,STARLINK-5565,PAYLOAD,2023-09-17 00:19:32,14.98329718,0.0003204,70.0012,5.6648,276.6869,83.3925,0.00020892,2.401e-05,0.0,0 STARLINK-5565,1 55745U 23028E   23260.01357286  .00002401  00000-0  20892-3 0  9997,2 55745  70.0012   5.6648 0003204 276.6869  83.3925 14.98329718 30522,6950.194,96.107,574.286,569.832,0.0
55745.0,STARLINK-5565,PAYLOAD,2023-09-17 13:08:37,14.98334424,0.0003331,70.001,4.3172,271.8024,88.2753,4.5793e-05,4.53e-06,0.0,0 STARLINK-5565,1 55745U 23028E   23260.54765254  .00000453  00000-0  45793-4 0  9996,2 55745  70.0010   4.3172 0003331 271.8024  88.2753 14.98334424 30601,6950.179,96.107,574.359,569.729,0.0
55745.0,STARLINK-5565,PAYLOAD,2023-09-18 00:21:33,14.98334501,0.0003534,70.0012,3.1387,272.3816,87.6938,-2.3381e-05,-3.72e-06,0.0,0 STARLINK-5565,1 55745U 23028E   23261.01497112 -.00000372  00000-0 -23381-4 0  9995,2 55745  70.0012   3.1387 0003534 272.3816  87.6938 14.98334501 30679,6950.179,96.107,574.5,569.588,0.0
55745.0,STARLINK-5565,PAYLOAD,2023-09-18 13:10:37,14.98324731,0.0002314,70.0033,1.7928,255.9144,104.1758,0.0005543,6.526e-05,0.0,0 STARLINK-5565,1 55745U 23028E   23261.54904321  .00006526  00000-0  55430-3 0  9992,2 55745  70.0033   1.7928 0002314 255.9144 104.1758 14.98324731 30751,6950.209,96.107,573.682,570.466,0.0
55745.0,STARLINK-5565,PAYLOAD,2023-09-18 16:22:54,14.98332564,0.0001904,70.0029,1.4565,274.5593,85.5349,3.0627e-05,2.73e-06,0.0,0 STARLINK-5565,1 55745U 23028E   23261.68257306  .00000273  00000-0  30627-4 0  9996,2 55745  70.0029   1.4565 0001904 274.5593  85.5349 14.98332564 30772,6950.185,96.107,573.373,570.727,0.0
55745.0,STARLINK-5565,PAYLOAD,2023-09-19 00:23:34,14.98349347,0.0002413,70.0031,0.6147,269.8992,90.1891,-0.00031839,-3.892e-05,0.0,0 STARLINK-5565,1 55745U 23028E   23262.01636693 -.00003892  00000-0 -31839-3 0  9991,2 55745  70.0031   0.6147 0002413 269.8992  90.1891 14.98349347 30825,6950.133,96.106,573.675,570.321,0.0
55745.0,STARLINK-5565,PAYLOAD,2023-09-19 16:24:53,14.98346159,0.0003222,70.0006,358.9311,261.8004,98.279,0.00016624,1.892e-05,0.0,0 STARLINK-5565,1 55745U 23028E   23262.68395192  .00001892  00000-0  16624-3 0  9991,2 55745  70.0006 358.9311 0003222 261.8004  98.2790 14.98346159 30920,6950.143,96.106,574.247,569.769,0.0
55745.0,STARLINK-5565,PAYLOAD,2023-09-20 10:02:24,14.98317785,0.0003555,69.9998,357.0807,276.93,83.1454,-1.979e-05,-3.29e-06,0.0,0 STARLINK-5565,1 55745U 23028E   23263.41833557 -.00000329  00000-0 -19790-4 0  9999,2 55745  69.9998 357.0807 0003555 276.9300  83.1454 14.98317785 31038,6950.231,96.108,574.566,569.625,0.0
55745.0,STARLINK-5565,PAYLOAD,2023-09-20 13:14:40,14.98314313,0.0003005,70.001,356.7433,268.8123,91.2692,-0.00018336,-2.279e-05,0.0,0 STARLINK-5565,1 55745U 23028E   23263.55186264 -.00002279  00000-0 -18336-3 0  9990,2 55745  70.0010 356.7433 0003005 268.8123  91.2692 14.98314313 31050,6950.241,96.108,574.195,570.018,0.0
55745.0,STARLINK-5565,PAYLOAD,2023-09-20 16:26:56,14.9831821,0.0003155,70.0008,356.4066,272.073,88.0068,-0.00013742,-1.732e-05,0.0,0 STARLINK-5565,1 55745U 23028E   23263.68538004 -.00001732  00000-0 -13742-3 0  9996,2 55745  70.0008 356.4066 0003155 272.0730  88.0068 14.98318210 31076,6950.229,96.108,574.287,569.902,0.0
55745.0,STARLINK-5565,PAYLOAD,2023-09-21 10:04:24,14.98335532,0.0003265,70.0001,354.5542,269.2936,90.7849,4.4054e-05,4.33e-06,0.0,0 STARLINK-5565,1 55745U 23028E   23264.41972615  .00000433  00000-0  44054-4 0  9994,2 55745  70.0001 354.5542 0003265 269.2936  90.7849 14.98335532 31180,6950.176,96.107,574.31,569.772,0.0
55745.0,STARLINK-5565,PAYLOAD,2023-09-21 13:16:40,14.98338568,0.0003327,69.9999,354.2176,273.966,86.1119,2.0975e-05,1.57e-06,0.0,0 STARLINK-5565,1 55745U 23028E   23264.55324507  .00000157  00000-0  20975-4 0  9999,2 55745  69.9999 354.2176 0003327 273.9660  86.1119 14.98338568 31202,6950.166,96.106,574.344,569.719,0.0
55745.0,STARLINK-5565,PAYLOAD,2023-09-21 16:28:56,14.98341762,0.0003284,70.0001,353.8813,272.2397,87.8386,6.9484e-05,7.36e-06,0.0,0 STARLINK-5565,1 55745U 23028E   23264.68676165  .00000736  00000-0  69484-4 0  9994,2 55745  70.0001 353.8813 0003284 272.2397  87.8386 14.98341762 31229,6950.157,96.106,574.304,569.739,0.0
55745.0,STARLINK-5565,PAYLOAD,2023-09-22 10:06:25,14.98323674,0.0002956,70.001,352.0302,267.5088,92.5733,0.00029477,3.425e-05,0.0,0 STARLINK-5565,1 55745U 23028E   23265.42112924  .00003425  00000-0  29477-3 0  9990,2 55745  70.0010 352.0302 0002956 267.5088  92.5733 14.98323674 31335,6950.212,96.107,574.132,570.023,0.0
55745.0,STARLINK-5565,PAYLOAD,2023-09-22 13:18:41,14.98326156,0.0003179,70.0005,351.693,270.8375,89.242,0.00030344,3.529e-05,0.0,0 STARLINK-5565,1 55745U 23028E   23265.55464824  .00003529  00000-0  30344-3 0  9993,2 55745  70.0005 351.6930 0003179 270.8375  89.2420 14.98326156 31351,6950.205,96.107,574.279,569.86,0.0
55745.0,STARLINK-5565,PAYLOAD,2023-09-22 14:54:49,14.98327056,0.0003063,70.0009,351.5254,268.3623,91.7185,0.00031403,3.656e-05,0.0,0 STARLINK-5565,1 55745U 23028E   23265.62140769  .00003656  00000-0  31403-3 0  9998,2 55745  70.0009 351.5254 0003063 268.3623  91.7185 14.98327056 31360,6950.202,96.107,574.196,569.938,0.0
55745.0,STARLINK-5565,PAYLOAD,2023-09-23 11:44:34,14.98333065,0.0003291,70.0009,349.3377,272.7987,87.2795,5.3324e-05,5.43e-06,0.0,0 STARLINK-5565,1 55745U 23028E   23266.48928792  .00000543  00000-0  53324-4 0  9992,2 55745  70.0009 349.3377 0003291 272.7987  87.2795 14.98333065 31494,6950.183,96.107,574.336,569.761,0.0
55745.0,STARLINK-5565,PAYLOAD,2023-09-23 13:20:42,14.98335396,0.0003364,70.0005,349.1686,274.0845,85.9929,6.6366e-05,6.99e-06,0.0,0 STARLINK-5565,1 55745U 23028E   23266.55604583  .00000699  00000-0  66366-4 0  9991,2 55745  70.0005 349.1686 0003364 274.0845  85.9929 14.98335396 31505,6950.176,96.107,574.379,569.703,0.0
55745.0,STARLINK-5565,PAYLOAD,2023-09-24 13:22:43,14.98328775,0.0003321,70.0011,346.6448,265.0995,94.9785,2.6331e-05,2.21e-06,0.0,0 STARLINK-5565,1 55745U 23028E   23267.55744865  .00000221  00000-0  26331-4 0  9999,2 55745  70.0011 346.6448 0003321 265.0995  94.9785 14.98328775 31658,6950.197,96.107,574.37,569.754,0.0
55745.0,STARLINK-5565,PAYLOAD,2023-09-24 14:58:51,14.98332009,0.0003412,69.9999,346.4747,269.457,90.6198,3.664e-05,3.44e-06,0.0,0 STARLINK-5565,1 55745U 23028E   23267.62420642  .00000344  00000-0  36640-4 0  9991,2 55745  69.9999 346.4747 0003412 269.4570  90.6198 14.98332009 31665,6950.187,96.107,574.423,569.68,0.0
55745.0,STARLINK-5565,PAYLOAD,2023-09-25 13:24:43,14.98344982,0.0003404,69.9998,344.1183,268.9335,91.1434,0.00017313,1.974e-05,0.0,0 STARLINK-5565,1 55745U 23028E   23268.55883406  .00001974  00000-0  17313-3 0  9990,2 55745  69.9998 344.1183 0003404 268.9335  91.1434 14.98344982 31805,6950.147,96.106,574.377,569.646,0.0
55745.0,STARLINK-5565,PAYLOAD,2023-09-25 15:00:51,14.98342062,0.0003249,70.0001,343.9501,266.4405,93.6383,0.00018055,2.063e-05,0.0,0 STARLINK-5565,1 55745U 23028E   23268.62559583  .00002063  00000-0  18055-3 0  9998,2 55745  70.0001 343.9501 0003249 266.4405  93.6383 14.98342062 31810,6950.156,96.106,574.279,569.762,0.0
55745.0,STARLINK-5565,PAYLOAD,2023-09-26 10:14:29,14.98322633,0.0003126,70.0002,341.9317,259.6032,100.4775,1.9383e-05,1.38e-06,0.0,0 STARLINK-5565,1 55745U 23028E   23269.42673401  .00000138  00000-0  19383-4 0  9990,2 55745  70.0002 341.9317 0003126 259.6032 100.4775 14.98322633 31935,6950.216,96.107,574.253,569.908,0.0
55745.0,STARLINK-5565,PAYLOAD,2023-09-26 13:26:45,14.98324273,0.0003244,69.9997,341.5939,263.0735,97.0055,1.7038e-05,1.1e-06,0.0,0 STARLINK-5565,1 55745U 23028E   23269.56025236  .00000110  00000-0  17038-4 0  9997,2 55745  69.9997 341.5939 0003244 263.0735  97.0055 14.98324273 31957,6950.211,96.107,574.33,569.821,0.0
55745.0,STARLINK-5565,PAYLOAD,2023-09-26 15:02:53,14.98326354,0.0003276,69.9996,341.4258,262.9931,97.0856,3.8116e-05,3.62e-06,0.0,0 STARLINK-5565,1 55745U 23028E   23269.62701075  .00000362  00000-0  38116-4 0  9995,2 55745  69.9996 341.4258 0003276 262.9931  97.0856 14.98326354 31962,6950.204,96.107,574.346,569.792,0.0
